STARLINK-4757           
1 53824C 22114G   26112.44354167  .00033456  00000+0  20980-2 0  1126
2 53824  53.2144 107.1102 0001109  73.8610 345.7119 15.08819730    14
STARLINK-4751           
1 53825C 22114H   26112.40534722  .00034476  00000+0  21620-2 0  1125
2 53825  53.2146 108.0161 0001275  74.3458 117.1587 15.08819329    16
STARLINK-4756           
1 53826C 22114J   26112.42409722  .00036553  00000+0  22924-2 0  1125
2 53826  53.2155 107.7362 0001349  78.6277 314.9140 15.08817119    11
STARLINK-4764           
1 53827C 22114K   26112.36715278  .00029627  00000+0  18562-2 0  1122
2 53827  53.2150 108.1085 0000984  96.7253 287.2487 15.08857358    18
STARLINK-4760           
1 53828C 22114L   26112.42062500  .00068790  00000+0  43164-2 0  1123
2 53828  53.2157 107.7124 0001338  67.0867 327.5441 15.08781171    18
STARLINK-4759           
1 53829C 22114M   26112.41298611  .00034500  00000+0  21636-2 0  1129
2 53829  53.2151 107.8636 0001348  79.6170 213.4855 15.08818427    16
STARLINK-4761           
1 53830C 22114N   26112.37062500  .00020533  00000+0  12878-2 0  1121
2 53830  53.2159 107.8581 0001484  77.8661  85.1528 15.08823790    11
STARLINK-4649           
1 53831C 22114P   26112.42270833  .00040408  00000+0  25340-2 0  1129
2 53831  53.2153 107.7809 0001146  63.8040 302.0462 15.08816607    16
STARLINK-4747           
1 53832C 22114Q   26112.39562500  .00032751  00000+0  20539-2 0  1128
2 53832  53.2159 107.6674 0001352  69.0958 269.8467 15.08818317    12
STARLINK-4771           
1 53833C 22114R   26112.42826389  .00044497  00000+0  27902-2 0  1122
2 53833  53.2158 107.6492 0001242  70.8721  20.1578 15.08817713    16
STARLINK-4737           
1 53834C 22114S   26112.42895833  .00032954  00000+0  20666-2 0  1128
2 53834  53.2156 107.4378 0001198  62.0710 138.0745 15.08820260    13
STARLINK-4783           
1 53835C 22114T   26112.39493056  .00031409  00000+0  19697-2 0  1122
2 53835  53.2162 107.7113 0001426  74.1132 241.0274 15.08820041    16
STARLINK-4778           
1 53836C 22114U   26112.39562500  .00517420  00000+0  31771-1 0  1122
2 53836  53.2170  98.1175 0001327  79.6119  34.5935 15.09347738    19
STARLINK-4776           
1 53837C 22114V   26112.37826389  .00033947  00000+0  21285-2 0  1126
2 53837  53.2158 107.7047 0001790  71.7283 192.7908 15.08823781    13
STARLINK-4773           
1 53838C 22114W   26112.39145833  .00046221  00000+0  28979-2 0  1123
2 53838  53.2167  98.1022 0001584  65.5060  45.4033 15.08821908    17
STARLINK-4784           
1 53839C 22114X   26112.41298611  .00056637  00000+0  35530-2 0  1123
2 53839  53.2162  98.0872 0001452  88.8306  99.0375 15.08795820    17
STARLINK-4766           
1 53840C 22114Y   26112.44631944  .00036720  00000+0  23027-2 0  1127
2 53840  53.2152  97.7495 0001416  71.1490  32.7695 15.08819561    12
STARLINK-4750           
1 53841C 22114Z   26112.44493056  .00030327  00000+0  19019-2 0  1121
2 53841  53.2164  97.8215 0001339  69.9717 351.6855 15.08819864    15
STARLINK-4754           
1 53842C 22114AA  26112.39979167  .00046149  00000+0  28954-2 0  1125
2 53842  53.2146  97.8699 0001329  77.6869 178.7976 15.08796234    12
STARLINK-4769           
1 53843C 22114AB  26112.43381944  .00039397  00000+0  24702-2 0  1125
2 53843  53.2160  97.8328 0001368  58.3984 322.8707 15.08822739    19
STARLINK-4745           
1 53844C 22114AC  26112.37826389  .00037056  00000+0  23238-2 0  1129
2 53844  53.2148  97.8891 0001284  75.8078 103.6628 15.08818823    12
STARLINK-4753           
1 53845C 22114AD  26112.44145833  .00033024  00000+0  20710-2 0  1129
2 53845  53.2153  97.7396 0001295  63.7640  39.0822 15.08819643    10
STARLINK-4746           
1 53846C 22114AE  26112.38034722  .00034157  00000+0  21422-2 0  1126
2 53846  53.2149  97.8008 0001418  75.2830 155.5896 15.08816243    11
STARLINK-4777           
1 53847C 22114AF  26112.39562500  .00034857  00000+0  21858-2 0  1128
2 53847  53.2145  97.8491 0001506  55.3273 198.4722 15.08820745    18
STARLINK-4780           
1 53848C 22114AG  26112.37062500  .00037689  00000+0  23636-2 0  1124
2 53848  53.2155  97.7659 0001331  76.8993 141.1676 15.08816321    16
STARLINK-4770           
1 53849C 22114AH  26112.40604167  .00032463  00000+0  20357-2 0  1122
2 53849  53.2149  97.7238 0001446  79.7914 270.6761 15.08821406    18
STARLINK-4767           
1 53850C 22114AJ  26112.43590278  .00032797  00000+0  20568-2 0  1128
2 53850  53.2159  97.3548 0001468  85.9095 187.0250 15.08819105    11
STARLINK-4755           
1 53851C 22114AK  26112.39423611  .00033253  00000+0  20853-2 0  1125
2 53851  53.2152  97.6986 0001102  81.3804 244.9825 15.08820584    11
STARLINK-4797           
1 53852C 22114AL  26112.43520833  .00029395  00000+0  18434-2 0  1129
2 53852  53.2152  92.6707 0001393  68.0322  48.4168 15.08820265    10
STARLINK-4794           
1 53853C 22114AM  26112.40673611  .00036039  00000+0  22600-2 0  1123
2 53853  53.2156  97.5637 0001317  73.1188   1.2302 15.08818444    17
STARLINK-4800           
1 53854C 22114AN  26112.41715278  .00013587  00000+0  85262-3 0  1128
2 53854  53.2154  88.0547 0001384  82.5960 143.1507 15.08806206    13
STARLINK-4703           
1 53855C 22114AP  26112.40326389  .00041118  00000+0  25786-2 0  1124
2 53855  53.2154  97.6281 0001369  74.0011 316.2438 15.08815714    11
STARLINK-4795           
1 53856C 22114AQ  26112.41715278  .00492810  00000+0  20590-1 0  1121
2 53856  53.2182  87.0132 0001386  73.2120 334.7526 15.22853782    18
STARLINK-4809           
1 53857C 22114AR  26112.37479167  .00031334  00000+0  19651-2 0  1128
2 53857  53.2164  97.5887 0001573  74.2592 246.5629 15.08819057    19
STARLINK-4798           
1 53858C 22114AS  26112.40395833  .00179510  00000+0  41938-2 0  1122
2 53858  53.2178  83.5662 0001622  69.3301 268.3005 15.41516986    11
STARLINK-4790           
1 53859C 22114AT  26112.39770833  .00026176  00000+0  16415-2 0  1129
2 53859  53.2152  92.5641 0001332  75.3802 337.4359 15.08823145    13
STARLINK-4799           
1 53860C 22114AU  26112.37826389  .00039375  00000+0  24695-2 0  1121
2 53860  53.2164  88.1097 0001367  69.3220   5.0316 15.08813311    14
STARLINK-4781           
1 53861C 22114AV  26112.42895833  .00024702  00000+0  15485-2 0  1123
2 53861  53.2156  87.9282 0001748  75.1465 254.5915 15.08838057    18
STARLINK-4788           
1 53863C 22114AX  26112.42340278  .00028369  00000+0  17791-2 0  1128
2 53863  53.2162  87.8308 0001502  69.4348 290.2887 15.08819761    15
STARLINK-4779           
1 53864C 22114AY  26112.42340278  .00027934  00000+0  17517-2 0  1122
2 53864  53.2154  87.3578 0001353  76.2461 163.7689 15.08823784    11
STARLINK-4762           
1 53866C 22114BA  26112.44701389 -.00016749  00000+0 -10504-2 0  1123
2 53866  53.2167  67.8926 0001503  83.7392 334.1674 15.08844193    15
STARLINK-4793           
1 53867C 22114BB  26112.42270833  .00385760  00000+0  17734-1 0  1128
2 53867  53.2181  77.2456 0001248  65.0864 245.2532 15.19652268    15
STARLINK-4789           
1 53868C 22114BC  26112.38729167  .00005228  00000+0  32802-3 0  1126
2 53868  53.2155  67.8630 0001590  80.3808 173.2249 15.08816392    17
STARLINK-4810           
1 53869C 22114BD  26112.35881944  .00040915  00000+0  25659-2 0  1129
2 53869  53.2167  77.7505 0001539  78.7190 125.2345 15.08814380    19
STARLINK-4732           
1 53870C 22114BE  26112.42618056  .00003070  00000+0  19224-3 0  1124
2 53870  53.2155  67.7130 0001670  86.3706 358.4262 15.08883769    10
STARLINK-4740           
1 53871C 22114BF  26112.41298611  .00006779  00000+0  42516-3 0  1124
2 53871  53.2163  67.4605 0001338  84.5599  88.8182 15.08830424    10
STARLINK-5028           
1 53886C 22119A   26112.38729167  .00008349  00000+0  52364-3 0  1123
2 53886  53.2146 128.1842 0001240  76.1764  87.1352 15.08828764    13
STARLINK-5029           
1 53887C 22119B   26112.40256944 -.00002231  00000+0 -13990-3 0  1123
2 53887  53.2149 127.9981 0001264  63.6432 242.8032 15.08834394    18
STARLINK-5034           
1 53888C 22119C   26112.40048611  .00420770  00000+0  55682-2 0  1127
2 53888  53.2169 120.0312 0001403  72.3995 344.6112 15.57479924    17
STARLINK-5031           
1 53889C 22119D   26112.38173611  .00002548  00000+0  15982-3 0  1123
2 53889  53.2147 128.1299 0001479  60.7877 112.3943 15.08831526    18
STARLINK-5050           
1 53890C 22119E   26112.44076389  .00025473  00000+0  15981-2 0  1126
2 53890  53.2159  92.4984 0001494  85.0249 261.7411 15.08809249    13
STARLINK-5041           
1 53891C 22119F   26112.38104167  .00090198  00000+0  42358-2 0  1120
2 53891  53.2186 127.0043 0001492  70.6675 327.2212 15.19065253    14
STARLINK-5046           
1 53892C 22119G   26112.37131944 -.00011644  00000+0 -73028-3 0  1123
2 53892  53.2153 127.9044 0001292  72.3477 184.4127 15.08839539    18
STARLINK-5052           
1 53893C 22119H   26112.38173611  .00001829  00000+0  11467-3 0  1123
2 53893  53.2154 127.9845 0001127  62.1562 185.9231 15.08834130    12
STARLINK-5043           
1 53894C 22119J   26112.42409722  .00011573  00000+0  72586-3 0  1120
2 53894  53.2153 127.8253 0001229  78.6611  24.8417 15.08826334    18
STARLINK-5032           
1 53895C 22119K   26112.40534722  .00483770  00000+0  11867-1 0  1123
2 53895  53.2184 123.3228 0001401  68.3555 136.0237 15.39895251    15
STARLINK-5037           
1 53896C 22119L   26112.39770833  .00012983  00000+0  81405-3 0  1128
2 53896  53.2152 127.7474 0001323  82.1882 337.9694 15.08835624    15
STARLINK-5035           
1 53897C 22119M   26112.43868056  .00166630  00000+0  68873-2 0  1121
2 53897  53.2168 126.4358 0001357  68.4787  81.7474 15.23379086    10
STARLINK-5044           
1 53898C 22119N   26112.39562500  .00000682  00000+0  42742-4 0  1125
2 53898  53.2148 127.6377 0001210  68.6615  40.2869 15.08835864    15
